{
  "norad_id": 52845,
  "name": "STARLINK-4168",
  "history": [
    {
      "epoch": "2026-03-28T20:49:32.072448Z",
      "apogee_km": 540.6860286951005,
      "perigee_km": 538.7798788080427,
      "latitude_deg": 1.6707342143639095e-05,
      "longitude_deg": 169.4271653064522,
      "height_km": 540.5808859811236,
      "semi_major_axis_km": 6917.869953751571,
      "eccentricity": 0.00013777,
      "inclination_deg": 53.2172,
      "raan_deg": 308.0928,
      "arg_perigee_deg": 87.1294,
      "mean_anomaly_deg": 272.9856,
      "mean_motion_rev_day": 15.08843414
    },
    {
      "epoch": "2026-03-29T00:00:18.201888Z",
      "apogee_km": 540.6875554656117,
      "perigee_km": 538.7643895592537,
      "latitude_deg": -1.1949538372392515e-05,
      "longitude_deg": 121.00936132775952,
      "height_km": 540.5672551627295,
      "semi_major_axis_km": 6917.862972512433,
      "eccentricity": 0.000139,
      "inclination_deg": 53.2175,
      "raan_deg": 307.4978,
      "arg_perigee_deg": 86.7568,
      "mean_anomaly_deg": 273.3583,
      "mean_motion_rev_day": 15.08845698
    },
    {
      "epoch": "2026-03-29T23:51:05.482080Z",
      "apogee_km": 540.7604504043684,
      "perigee_km": 538.709993077845,
      "latitude_deg": 3.0115603695537713e-06,
      "longitude_deg": 117.87303256757882,
      "height_km": 540.6314990290193,
      "semi_major_axis_km": 6917.872221741107,
      "eccentricity": 0.0001482,
      "inclination_deg": 53.2178,
      "raan_deg": 303.0378,
      "arg_perigee_deg": 90.039,
      "mean_anomaly_deg": 270.0772,
      "mean_motion_rev_day": 15.08842672
    },
    {
      "epoch": "2026-03-29T23:51:05.482944Z",
      "apogee_km": 540.7602398111585,
      "perigee_km": 538.7101975578744,
      "latitude_deg": 5.781701724668463e-06,
      "longitude_deg": 117.87303101734965,
      "height_km": 540.6314958315506,
      "semi_major_axis_km": 6917.872218684516,
      "eccentricity": 0.00014817,
      "inclination_deg": 53.2178,
      "raan_deg": 303.0378,
      "arg_perigee_deg": 90.039,
      "mean_anomaly_deg": 270.0772,
      "mean_motion_rev_day": 15.08842673
    },
    {
      "epoch": "2026-03-30T14:09:34.056000Z",
      "apogee_km": 540.6845154319699,
      "perigee_km": 538.8093538126504,
      "latitude_deg": -3.109984076500542e-05,
      "longitude_deg": -100.01105621207597,
      "height_km": 540.6238777147081,
      "semi_major_axis_km": 6917.883934622309,
      "eccentricity": 0.00013553,
      "inclination_deg": 53.2162,
      "raan_deg": 300.3604,
      "arg_perigee_deg": 88.8604,
      "mean_anomaly_deg": 271.2543,
      "mean_motion_rev_day": 15.0883884
    }
  ]
}